#dP2022  3 22  0  0  0.00000000      96 __u+U ITR00 FIT  IAC
## 2202 172800.00000000   900.00000000 59660 0.0000000000000
+  116   C06C07C08C09C10C11C12C13C14C16C19C20C21C22C23C24C25
+        C26C27C28C29C30C32C33C34C35C36C37C38C39C40C41C42C43
+        C44C45C46E01E02E03E04E05E07E08E10E11E12E13E14E15E18
+        E19E21E24E25E26E27E30E31E33E34E36G01G02G03G04G05G06
+        G07G08G09G10G11G12G13G14G15G16G17G18G19G20G21G22G23
+        G24G25G26G27G28G29G30G31G32J01J02J03R01R02R03R04R05
+        R07R08R09R12R13R14R15R17R18R19R20R21R22R24  0  0  0
++        11  8  8  9  8 11 10  8  7 11  7  7  8  6  7  7  7
++         6  7  7  7  7  7  8  7  5  7  6  7  8  6  5  9  7
++         8  6  7  7  5  5  6  7  7  6  7  7  6  6  7  6  6
++         7  7  6  5  6  7  7  6  6  6  7  6  6  6  6  4  5
++         7  5  5  6  6  6  7  6  7  6  7  6  7  6  6  6  6
++         6  6  6  6  6  6  5  6  6  9  8  8  7  7  6  7  7
++         6  7  7  7  7  7  7  6  6  7  8  6  8  7  0  0  0
%c M  cc GPS ccc cccc cccc cccc cccc ccccc ccccc ccccc ccccc
%c cc cc ccc ccc cccc cccc cccc cccc ccccc ccccc ccccc ccccc
%f  0.0000000  0.000000000  0.00000000000  0.000000000000000
%f  0.0000000  0.000000000  0.00000000000  0.000000000000000
%i    0    0    0    0      0      0      0      0         0
%i    0    0    0    0      0      0      0      0         0
/* INFORMATION & ANALYSIS CENTER (IAC)      ULTRA-RAPID DATA
/* S/V CLOCKS ARE ALIGNED TO GNSS TIME                      
/* G:C1WC2W R:C1PC2P E:C1XC5X C:C2IC6I J:C1CC2S             
/* PCV:IGS14_2196 OL/AL:FES2004  NONE     YN ORB:CoN CLK:CoN
*  2022 03 22 21 30  0.00000000
PC06  -3796.887365  26108.401058  32937.157784   -342.584163
PC07 -18750.186562  31808.557268 -20481.797395    101.872874
PC08  -7581.445326  40065.677270 -10413.712069    213.279258
PC09   7519.264475  30815.614457  28354.411082   -628.345324
PC10 -11361.609380  31871.519950 -25175.892312    138.253507
PC11  22827.674408   2677.778721  15872.601521    245.526160
PC12  23181.192312  15517.160133   -615.972971   -634.122692
PC13  -1462.071739  41980.268368  -1279.345672    -82.191057
PC14  25685.985904  -8104.565758   7214.889056    452.336277
PC16  -5164.198726  24898.132072  33831.021079    106.858964
PC19 -23741.641863  14512.144838   2284.508826    884.383894
PC20 -24072.270485   1981.520257 -13982.330153   -853.910830
PC21   9857.883538  12603.761253  22883.953102   -910.241846
PC22  -9716.794488  19129.715875  17865.361649   -962.219727
PC23   4255.861364 -27223.964274  -4434.822286   -940.365622
PC24  15619.925119   6854.617957 -22096.146478   -948.012051
PC25  13529.575517 -15859.863054 -18571.835604   -762.034348
PC26   9108.737528  22834.837355 -13183.033617    762.384639
PC27 -18040.019563 -19189.016423   9173.049400    696.038982
PC28   -810.508065 -18031.960029  21282.947335     46.526194
PC29 -17150.712862   6737.285700 -20963.090914    531.171595
PC30 -25325.551488  -8805.291135  -7692.664093    495.611005
PC32  -9942.988547 -12527.135220 -22847.427045   -967.012105
PC33  23693.165378 -14567.787106  -2148.430389   -969.481125
PC34  25297.081020   8146.800761   8547.905222   -442.457564
PC35    530.579151  17761.760623 -21535.336586    194.221389
PC36 -14076.670831  15013.963329  18861.739188   -953.651032
PC37  -7910.326480 -23804.199664  12262.301265   -936.493465
PC38 -11604.754681  36958.349231 -16434.256190    219.806182
PC39 -11322.787293  21279.211600  34613.376455     34.873708
PC40 -25557.596932  26693.518957 -20459.686846    254.492310
PC41  10101.939607 -19187.877763 -17508.774528   -961.975880
PC42  23651.811662  -1104.636737  14803.348140   -940.921779
PC43  17778.854449  -6198.590312  20596.623616   -934.505027
PC44  18542.152956  18677.400844  -9348.122387    603.364047
PC45  -4047.390475  27275.109374   4206.868182    711.626040
PC46 -15742.614118  -5258.393680  22435.090575   -231.783786
PE01    298.174936 -23648.970735  17801.490430   -601.890193
PE02   -135.499956  23548.098406 -17927.694713    287.961730
PE03   9095.556113  16369.384835  22922.320358   -540.133146
PE04 -26191.485209  -8311.525945 -10994.080198   -990.256087
PE05 -13665.747252  14950.471205  21590.152206   -197.901373
PE07  28159.593390  -4845.354162  -7705.896757   -650.989153
PE08  26408.869212   7947.480985  10741.736301   -499.604659
PE10 -19835.763844  -8652.780708 -20198.701510   -502.087338
PE11 -16711.498712   2467.839478 -24310.290369   4161.738403
PE12 -19656.407017 -17843.757317 -13065.363607   4700.380289
PE13  16958.904750  -1702.728801  24207.828436    427.477953
PE14  23822.044476    886.381512   4940.368147  -1787.524122
PE15  19656.257365  17954.791310  12960.496970    756.202702
PE18 -27159.526023   7106.839754 -15699.545082  -1653.085297
PE19  -6306.525228 -16633.640587 -23648.659934  -1757.168260
PE21  14282.152008 -25867.758712   1826.839612   -724.076253
PE24 -21012.822135  12066.150782  16964.475399   -519.843939
PE25 -14429.986463  25789.800874  -1581.359942   -567.734986
PE26   3734.479508 -20982.421817  20544.214329   -943.027064
PE27  20947.902416 -13357.603073 -16106.124060   -259.149804
PE30  14650.536310   8052.417523 -24441.763586   -369.936649
PE31 -15227.451766  -6926.616925  24420.857433   -493.930422
PE33 -10739.049558 -26938.802685   5893.831100   -458.325412
PE34  10931.484531  26914.025691  -5690.491535   -508.148424
PE36  -4305.590365  20250.155394 -21157.268917   -349.032325
PG01  15713.341247   2207.852970  21081.437777    402.607427
PG02 -14933.743270 -20722.808198  -6345.629818   -652.540820
PG03  19955.013985  -8430.084643  15188.918177   -175.155597
PG04  25768.972714    100.484540  -6605.549747   -181.738450
PG05 -13743.030411  -7055.315655 -21775.590604    -75.619298
PG06  -4575.658257 -25105.049337   7283.055003    240.355577
PG07   9101.688654 -14936.691172 -19452.132867    317.300701
PG08  25790.151142   6019.528440  -3824.420236    -60.885281
PG09  19710.027841  -8609.445196 -15669.770300   -348.291341
PG10  -9614.164939  22701.718689   9631.561579   -355.049627
PG11 -12853.108365 -21962.844157  -7639.357068    -55.945820
PG12 -19641.461027   4030.878576  17083.596890   -188.902589
PG13 -20789.358185 -13328.492487 -10147.834370    281.315148
PG14  11276.829279 -22408.116293   8603.932537    -96.331394
PG15 -26325.279513  -3339.304119  -3644.993313    -74.756834
PG16   9763.238425  11653.385123 -22027.309203   -483.649482
PG17   4244.840827 -14421.230240  22330.829036    590.687011
PG18  -9025.780186  14957.776080 -19978.533491    213.679178
PG19  -4374.490357 -15623.460702  20808.250041    134.494744
PG20  -7592.799037 -15938.153704 -19909.392105    516.183022
PG21  18371.710726  11987.465036  16082.164303    159.688097
PG22   7554.672505  16202.440376  20107.181778    231.599214
PG23 -16679.042589  20555.396176  -1403.694212     -9.014853
PG24 -18006.444989  -5804.923059  18500.980235    265.455235
PG25 -19390.766952  16219.096259   7380.312051    301.909918
PG26    741.037294  20372.145691 -16947.237219    192.877441
PG27  19129.602376  12532.509221 -14043.879346    162.402030
PG28   4632.918124 -20964.486254  16300.037501    374.757967
PG29 -21414.837554   5311.327577 -14879.536307   -494.446881
PG30   3299.974347 -21813.428906 -14539.485539   -520.092142
PG31   5885.870105  25232.792151   4438.661641   -170.112199
PG32    204.484904  15463.146519  21741.519295    -90.009513
PJ01 -32284.015402  24040.621457  17444.660597    183.967168
PJ02 -32748.299605  25454.603936  12459.198936     -2.159743
PJ03 -24152.943869  17659.711373 -25125.609728     -1.126531
PR01 -19775.157806  12119.823764  10639.276441      7.332544
PR02  -1717.798731  11684.630288  22648.443323    513.298616
PR03  15966.375923   4642.108559  19413.290618     53.558947
PR04  24441.297669  -4873.395412   5490.017743    133.130336
PR05  19582.143642 -11627.652478 -11497.296095     89.837603
PR07 -16490.672392  -4250.028988 -18928.883062     32.958762
PR08 -24427.755807   5050.629475  -5210.249965    -64.191516
PR09   1507.150593 -24500.504022   6815.384725     45.742253
PR12  -9844.525537  20847.483664  10911.476433     17.550344
PR13  -2295.659412  24763.142242  -5685.761977    -19.809545
PR14   7085.602959  13798.883255 -20247.888653     75.685658
PR15  11872.116564  -4789.053923 -22049.715426     97.360865
PR17  18845.663224  17159.716414    500.552566    511.646445
PR18  18392.317966   7391.480673  16105.517964    111.145019
PR19   9276.459979  -5262.766518  23171.199455   -182.551413
PR20  -7591.282657 -17872.238159  16520.334420    -67.213103
PR21 -19167.605487 -16729.482683  -1977.241477   -287.404928
PR22 -17925.893746  -6731.654150 -16807.536069   -172.236278
PR24   8379.559590  18154.208869 -15819.112423     85.612530
EOF
